     2.100          NAVIGATION                              RINEX VERSION / TYPE
fic2rin                                 01/30/2015 00:19:36 PGM / RUN BY / DATE
                                                            END OF HEADER
17 15  1 29  1 59 44.0 -.152748543769D-03 -.227373675443D-11  .000000000000D+00
     .500000000000D+01 -.549687500000D+02  .422160441820D-08  .503926017467D+00
    -.276789069176D-05  .100268209353D-01  .933185219765D-05  .515370956230D+04
     .352784000000D+06 -.108033418655D-06 -.807092353448D+00  .782310962677D-07
     .971282295521D+00  .209250000000D+03 -.204442353925D+01 -.800176187693D-08
     .435732435719D-10  .100000000000D+01  .182900000000D+04  .000000000000D+00
     .240000000000D+01  .000000000000D+00 -.107102096081D-07  .500000000000D+01
     .345606000000D+06  .400000000000D+01
 1 15  1 29  2  0  0.0 -.964105129242D-05  .454747350886D-12  .000000000000D+00
     .590000000000D+02 -.575000000000D+01  .455768984608D-08 -.170753440484D+01
    -.258907675743D-06  .382493692450D-02  .762566924095D-05  .515366510963D+04
     .352800000000D+06 -.335276126862D-07  .202050490180D+00 -.100582838058D-06
     .962109181812D+00  .234281250000D+03  .416879490784D+00 -.794925969000D-08
     .290726395636D-09  .100000000000D+01  .182900000000D+04  .000000000000D+00
     .240000000000D+01  .000000000000D+00  .558793544769D-08  .590000000000D+02
     .345606000000D+06  .400000000000D+01
 2 15  1 29  2  0  0.0  .544663984329D-03  .227373675443D-11  .000000000000D+00
     .170000000000D+02  .250000000000D+00  .515914347046D-08 -.108580293136D+01
     .130385160446D-06  .142774732085D-01  .694766640663D-05  .515375255203D+04
     .352800000000D+06  .335276126862D-06  .167075947361D+00  .182539224625D-06
     .940713564564D+00  .234625000000D+03 -.233150431852D+01 -.834534761723D-08
     .256082095419D-09  .100000000000D+01  .182900000000D+04  .000000000000D+00
     .240000000000D+01  .000000000000D+00 -.204890966415D-07  .170000000000D+02
     .345606000000D+06  .400000000000D+01
 3 15  1 29  2  0  0.0  .177632085979D-03  .229647412198D-10  .000000000000D+00
     .820000000000D+02 -.768750000000D+01  .464662212189D-08  .670155886157D+00
    -.359490513802D-06  .958035816438D-03  .788643956184D-05  .515375381088D+04
     .352800000000D+06  .484287738800D-07  .124240153990D+01  .447034835815D-07
     .959104577755D+00  .226375000000D+03 -.300890786219D+01 -.803640617715D-08
    -.223937899341D-09  .100000000000D+01  .182900000000D+04  .000000000000D+00
     .340000000000D+01  .000000000000D+00  .139698386192D-08  .820000000000D+02
     .345606000000D+06  .400000000000D+01
 4 15  1 29  2  0  0.0 -.633671879768D-05 -.568434188608D-12  .000000000000D+00
     .980000000000D+02 -.440625000000D+01  .505949646262D-08 -.188321017611D+01
    -.197440385818D-06  .110060159350D-01  .722706317902D-05  .515372938347D+04
     .352800000000D+06  .219792127609D-06  .182492141507D+00 -.100582838058D-06
     .939742734091D+00  .227468750000D+03  .105062037769D+01 -.812212403335D-08
     .294297972978D-09  .100000000000D+01  .182900000000D+04  .000000000000D+00
     .240000000000D+01  .000000000000D+00 -.651925802231D-08  .980000000000D+02
     .345606000000D+06  .400000000000D+01
 5 15  1 29  2  0  0.0 -.286503229290D-03  .511590769747D-11  .000000000000D+00
     .340000000000D+02 -.186875000000D+02  .498592196938D-08  .124637800140D+01
    -.854954123497D-06  .403966603335D-02  .756792724133D-05  .515375753403D+04
     .352800000000D+06 -.838190317154D-07  .123692271420D+01 -.186264514923D-08
     .946388223794D+00  .226750000000D+03  .423730040640D+00 -.821534220198D-08
    -.250367571671D-09  .100000000000D+01  .182900000000D+04  .000000000000D+00
     .240000000000D+01  .000000000000D+00 -.107102096081D-07  .340000000000D+02
     .345606000000D+06  .400000000000D+01
 6 15  1 29  2  0  0.0  .653010793030D-04  .117097442853D-10  .000000000000D+00
     .107000000000D+03 -.340625000000D+01  .465662253845D-08  .981410075920D+00
    -.165775418282D-06  .409431406297D-03  .751391053200D-05  .515368043709D+04
     .352800000000D+06  .465661287308D-07  .193520147565D+00 -.260770320892D-07
     .962013138314D+00  .236593750000D+03  .250749196637D+01 -.806497879588D-08
     .298941023522D-09  .100000000000D+01  .182900000000D+04  .000000000000D+00
     .240000000000D+01  .000000000000D+00  .465661287308D-08  .107000000000D+03
     .345606000000D+06  .400000000000D+01
 7 15  1 29  2  0  0.0  .435613095760D-03  .329691829393D-11  .000000000000D+00
     .620000000000D+02  .730625000000D+02  .447590072495D-08 -.226067277730D+01
     .363402068615D-05  .798952288460D-02  .464357435703D-05  .515373928642D+04
     .352800000000D+06  .242143869400D-07 -.292112643714D+01 -.165775418282D-06
     .971694791606D+00  .297625000000D+03 -.275218886947D+01 -.816284001505D-08
     .197151069276D-09  .100000000000D+01  .182900000000D+04  .000000000000D+00
     .240000000000D+01  .000000000000D+00 -.111758708954D-07  .620000000000D+02
     .345606000000D+06  .400000000000D+01
 8 15  1 29  2  0  0.0  .173398293555D-04  .227373675443D-12  .000000000000D+00
     .470000000000D+02  .475937500000D+02  .405695470273D-08 -.778379650065D+00
     .270269811153D-05  .147933001863D-01  .414997339249D-05  .515221513176D+04
     .352800000000D+06  .258907675743D-06 -.281634800770D+01  .596046447754D-07
     .995231029584D+00  .317593750000D+03 -.267107998788D+01 -.809247994141D-08
     .985755346381D-10  .100000000000D+01  .182900000000D+04  .000000000000D+00
     .340000000000D+01  .630000000000D+02 -.512227416039D-08  .470000000000D+02
     .345606000000D+06  .400000000000D+01
 9 15  1 29  2  0  0.0 -.697965733707D-04 -.122781784739D-10  .000000000000D+00
     .102000000000D+03  .680000000000D+02  .442482716896D-08  .867174886115D-01
     .344030559063D-05  .329777481966D-03  .101905316114D-04  .515366772461D+04
     .352800000000D+06  .931322574615D-08  .228695780470D+01  .931322574615D-08
     .958252786389D+00  .178062500000D+03  .224942314939D+01 -.796461747257D-08
    -.871464871438D-10  .100000000000D+01  .182900000000D+04  .000000000000D+00
     .240000000000D+01  .000000000000D+00  .465661287308D-09  .102000000000D+03
     .345606000000D+06  .400000000000D+01
10 15  1 29  2  0  0.0 -.160860363394D-03 -.170530256582D-11  .000000000000D+00
     .960000000000D+02 -.179687500000D+02  .517342977983D-08  .159561111714D+01
    -.100210309029D-05  .145357502624D-01  .785849988461D-05  .515365361595D+04
     .352800000000D+06 -.301748514175D-06  .125271799724D+01 -.670552253723D-07
     .941171065861D+00  .221031250000D+03  .919595559429D+00 -.842677958062D-08
    -.293583657509D-09  .100000000000D+01  .182900000000D+04  .000000000000D+00
     .340000000000D+01  .000000000000D+00 -.325962901115D-08  .960000000000D+02
     .345606000000D+06  .400000000000D+01
11 15  1 29  2  0  0.0 -.554093625396D-03 -.261479726760D-11  .000000000000D+00
     .870000000000D+02 -.518750000000D+01  .595917679506D-08 -.219128308374D+01
    -.208616256714D-06  .156090746168D-01  .766478478909D-05  .515372297478D+04
     .352800000000D+06  .275671482086D-06 -.139891362854D+00 -.111758708954D-07
     .892630754957D+00  .191343750000D+03  .137797489377D+01 -.845785230350D-08
     .388230457071D-09  .100000000000D+01  .182900000000D+04  .000000000000D+00
     .340000000000D+01  .000000000000D+00 -.121071934700D-07  .870000000000D+02
     .345606000000D+06  .400000000000D+01
12 15  1 29  2  0  0.0  .265068840235D-03  .306954461848D-11  .000000000000D+00
     .660000000000D+02 -.507187500000D+02  .395016454021D-08 -.271311084144D+01
    -.268593430519D-05  .521164236125D-02  .515207648277D-05  .515374768829D+04
     .352800000000D+06 -.540167093277D-07 -.185446923841D+01 -.167638063431D-06
     .988981136337D+00  .292031250000D+03  .502756077992D+00 -.790818655057D-08
    -.143220251413D-09  .100000000000D+01  .182900000000D+04  .000000000000D+00
     .240000000000D+01  .000000000000D+00 -.125728547573D-07  .660000000000D+02
     .345606000000D+06  .400000000000D+01
13 15  1 29  2  0  0.0 -.831489451230D-04 -.352429196937D-11  .000000000000D+00
     .500000000000D+02  .603125000000D+02  .414160108574D-08 -.152297897830D+01
     .320747494698D-05  .535269081593D-02  .975467264652D-05  .515369066048D+04
     .352800000000D+06 -.104308128357D-06  .240022122191D+01  .167638063431D-07
     .975131423166D+00  .201625000000D+03  .206815522308D+01 -.781996859022D-08
    -.439304013061D-10  .100000000000D+01  .182900000000D+04  .000000000000D+00
     .240000000000D+01  .000000000000D+00 -.116415321827D-07  .500000000000D+02
     .345606000000D+06  .400000000000D+01
14 15  1 29  2  0  0.0  .924849882722D-04 -.352429196937D-11  .000000000000D+00
     .165000000000D+03  .654062500000D+02  .435589572626D-08  .325312923206D+00
     .326707959175D-05  .773091265000D-02  .914745032787D-05  .515378139687D+04
     .352800000000D+06 -.119209289551D-06  .236642089029D+01  .614672899246D-07
     .967606214991D+00  .208531250000D+03 -.197090708106D+01 -.801854829044D-08
    -.101432796512D-09  .100000000000D+01  .182900000000D+04  .000000000000D+00
     .340000000000D+01  .000000000000D+00 -.931322574615D-08  .165000000000D+03
     .345606000000D+06  .400000000000D+01
15 15  1 29  2  0  0.0 -.229073688388D-03 -.227373675443D-11  .000000000000D+00
     .890000000000D+02  .479062500000D+02  .504806741513D-08 -.328411935218D+00
     .262632966042D-05  .705220014788D-02  .904127955437D-05  .515358737755D+04
     .352800000000D+06  .931322574615D-07  .224625192481D+01  .353902578354D-07
     .934150364004D+00  .190125000000D+03  .367694158818D+00 -.834463330176D-08
    -.105718689322D-09  .100000000000D+01  .182900000000D+04  .000000000000D+00
     .240000000000D+01  .000000000000D+00 -.107102096081D-07  .890000000000D+02
     .345606000000D+06  .400000000000D+01
